ONEWEB-0273             
1 48991U 21060AA  23331.73194454 -.00000036  00000+0 -12765-3 0  9993
2 48991  87.9093  54.3601 0001469  97.4795 262.6502 13.16591940118191
ONEWEB-0274             
1 48992U 21060AB  23331.75729052 -.00000027  00000+0 -10316-3 0  9994
2 48992  87.9092  54.3595 0001412  83.2302 276.8989 13.16593944118235
ONEWEB-0275             
1 48993U 21060AC  23331.29075899  .00000098  00000+0  22212-3 0  9991
2 48993  87.9084  54.4498 0001621 104.0270 256.1041 13.16599675116806
ONEWEB-0276             
1 48994U 21060AD  23331.78049791 -.00004601  00000+0 -12070-1 0  9993
2 48994  87.9096  54.3440 0001471 107.2419 252.8873 13.16616995118183
ONEWEB-0277             
1 48995U 21060AE  23331.26118404  .00000023  00000+0  27387-4 0  9997
2 48995  87.9092  54.4869 0001091 110.5068 249.6180 13.16593025116801
ONEWEB-0278             
1 48996U 21060AF  23331.32663009  .00000087  00000+0  19318-3 0  9995
2 48996  87.9094  54.4309 0002072 109.1336 251.0019 13.16593229116944
ONEWEB-0279             
1 48997U 21060AG  23331.25909333  .00000021  00000+0  21614-4 0  9992
2 48997  87.9094  54.4423 0001689 103.1495 256.9824 13.16595609116868
ONEWEB-0280             
1 48998U 21060AH  23331.72983182 -.00000690  00000+0 -18396-2 0  9994
2 48998  87.9093  54.3495 0001173 106.3957 253.7303 13.16595116118156
